STARLINK-1320
1 45572U 20025AT  26092.79589508  .00109262  00000+0  78553-3 0  9992
2 45572  53.0435 226.4278 0003920 103.5734 256.5721 15.72806600330596
STARLINK-1958
1 47559U 21009M   26092.83335647  .00184522  00000+0  13099-2 0  9995
2 47559  53.0426 202.1216 0008895  29.4646 336.4944 15.72800716  5956
